0 FENGYUN 1C DEB
1 29844U 99025EN  13280.92959697  .00000464  00000-0  19005-3 0  7969
2 29844 098.9195 002.0547 0189978 051.5884 008.2024 14.22648742349441
0 FENGYUN 1C DEB
1 29844U 99025EN  13282.06035784  .00000484  00000-0  19740-3 0  7977
2 29844 098.9195 003.1998 0189888 048.3398 039.4261 14.22651735349600
0 FENGYUN 1C DEB
1 29844U 99025EN  13283.47461144  .00000425  00000-0  17552-3 0  7981
2 29844 098.9197 004.6321 0189809 044.2734 082.5855 14.22653665349804
0 FENGYUN 1C DEB
1 29844U 99025EN  13285.85908029  .00000460  00000-0  18891-3 0  8003
2 29844 098.9196 007.0470 0189705 037.4262 054.7590 14.22655222350147
0 FENGYUN 1C DEB
1 29844U 99025EN  13287.48347547  .00000523  00000-0  21229-3 0  8016
2 29844 098.9195 008.6924 0189606 032.7492 094.2001 14.22657169350373
0 FENGYUN 1C DEB
1 29844U 99025EN  13288.74850476  .00000677  00000-0  26961-3 0  8025
2 29844 098.9193 009.9738 0189559 029.1116 093.1334 14.22659791350558
0 FENGYUN 1C DEB
1 29844U 99025EN  13289.80233867  .00000672  00000-0  26793-3 0  8031
2 29844 098.9191 011.0413 0189474 026.0620 090.4429 14.22662268350707
0 FENGYUN 1C DEB
1 29844U 99025EN  13291.49104095  .00000705  00000-0  28022-3 0  8044
2 29844 098.9187 012.7517 0189361 021.1801 099.3013 14.22665018350946
0 FENGYUN 1C DEB
1 29844U 99025EN  13292.95504382  .00000834  00000-0  32832-3 0  8057
2 29844 098.9185 014.2345 0189293 016.9483 037.3538 14.22666871351158
0 FENGYUN 1C DEB
1 29844U 99025EN  13294.79565531  .00000869  00000-0  34117-3 0  8061
2 29844 098.9184 016.0986 0189205 011.6413 104.2504 14.22670672351416
